{"fetched_at":"2026-07-14T06:34:31.567Z","source":"https://celestrak.org/NORAD/elements/gp.php?GROUP=stations&FORMAT=JSON","constellation":"iss","records":[{"OBJECT_NAME":"ISS (ZARYA)","OBJECT_ID":"1998-067A","EPOCH":"2026-07-13T18:23:41.212608","CLASSIFICATION_TYPE":"U","MEAN_MOTION":15.49001429,"ECCENTRICITY":0.0006711,"INCLINATION":51.6307,"RA_OF_ASC_NODE":168.5527,"ARG_OF_PERICENTER":292.2587,"MEAN_ANOMALY":67.7689,"EPHEMERIS_TYPE":0,"NORAD_CAT_ID":25544,"ELEMENT_SET_NO":999,"REV_AT_EPOCH":57587,"BSTAR":0.000080956,"MEAN_MOTION_DOT":0.00004013,"MEAN_MOTION_DDOT":0}]}
